[{"OBJECT_NAME":"STARLINK-35491","OBJECT_ID":"2025-236AD","EPOCH":"2026-03-09T12:22:19.493760","MEAN_MOTION":15.30202633,"ECCENTRICITY":0.00011205,"INCLINATION":53.1579,"RA_OF_ASC_NODE":104.9837,"ARG_OF_PERICENTER":75.3909,"MEAN_ANOMALY":284.7216,"EPHEMERIS_TYPE":0,"CLASSIFICATION_TYPE":"U","NORAD_CAT_ID":66113,"ELEMENT_SET_NO":999,"REV_AT_EPOCH":2291,"BSTAR":0.0010876448,"MEAN_MOTION_DOT":0.00031995,"MEAN_MOTION_DDOT":0},{"OBJECT_NAME":"FENGYUN 1C DEB","OBJECT_ID":"1999-025AJJ","EPOCH":"2026-03-09T18:40:58.380672","MEAN_MOTION":15.18672988,"ECCENTRICITY":0.00638575,"INCLINATION":98.7226,"RA_OF_ASC_NODE":259.4919,"ARG_OF_PERICENTER":168.3626,"MEAN_ANOMALY":191.9098,"EPHEMERIS_TYPE":0,"CLASSIFICATION_TYPE":"U","NORAD_CAT_ID":30520,"ELEMENT_SET_NO":999,"REV_AT_EPOCH":2360,"BSTAR":0.0014000942,"MEAN_MOTION_DOT":0.0003064,"MEAN_MOTION_DDOT":0}]
